COMMENT,ORIGINATOR,NORAD_CAT_ID,OBJECT_NAME,OBJECT_TYPE,CLASSIFICATION_TYPE,INTLDES,EPOCH,EPOCH_MICROSECONDS,MEAN_MOTION,ECCENTRICITY,INCLINATION,RA_OF_ASC_NODE,ARG_OF_PERICENTER,MEAN_ANOMALY,EPHEMERIS_TYPE,ELEMENT_SET_NO,REV_AT_EPOCH,BSTAR,MEAN_MOTION_DOT,MEAN_MOTION_DDOT,FILE,TLE_LINE0,TLE_LINE1,TLE_LINE2,OBJECT_ID,OBJECT_NUMBER,SEMIMAJOR_AXIS,PERIOD,APOGEE,PERIGEE,DECAYED,date
GENERATED VIA SPACETRACK.ORG API,18 SPCS,48895,SPACEBEE-108,PAYLOAD,U,21059S,2023/3/12 8:46,321568,15.24704607,0.0008457,97.5825,206.571,252.1685,107.863,0,999,9460,0.0019149,0.00047595,0,3858534,0 SPACEBEE-108,1 48895U 21059S   23071.36533937  .00047595  00000-0  19149-2 0  9999,2 48895  97.5825 206.5710 0008457 252.1685 107.8630 15.24704607 94606,2021-059S,48895,6869.81,94.445,497.484,485.865,0,
GENERATED VIA SPACETRACK.ORG API,18 SPCS,48895,SPACEBEE-108,PAYLOAD,U,21059S,2023/3/13 8:23,409856,15.24784825,0.0008531,97.5822,207.5677,248.7787,111.254,0,999,9475,0.0015224,0.00037866,0,3859136,0 SPACEBEE-108,1 48895U 21059S   23072.34973854  .00037866  00000-0  15224-2 0  9994,2 48895  97.5822 207.5677 0008531 248.7787 111.2540 15.24784825 94758,2021-059S,48895,6869.569,94.44,497.294,485.573,0,
GENERATED VIA SPACETRACK.ORG API,18 SPCS,48895,SPACEBEE-108,PAYLOAD,U,21059S,2023/3/13 8:23,409856,15.24784825,0.0008531,97.5822,207.5677,248.7787,111.254,0,999,9475,0.0015224,0.00037866,0,3859425,0 SPACEBEE-108,1 48895U 21059S   23072.34973854  .00037866  00000-0  15224-2 0  9994,2 48895  97.5822 207.5677 0008531 248.7787 111.2540 15.24784825 94758,2021-059S,48895,6869.569,94.44,497.294,485.573,0,
GENERATED VIA SPACETRACK.ORG API,18 SPCS,48895,SPACEBEE-108,PAYLOAD,U,21059S,2023/3/13 14:41,224960,15.24804905,0.0008557,97.5821,207.8334,247.8515,112.1815,0,999,9479,0.0015045,0.0003744,0,3859631,0 SPACEBEE-108,1 48895U 21059S   23072.61223640  .00037440  00000-0  15045-2 0  9994,2 48895  97.5821 207.8334 0008557 247.8515 112.1815 15.24804905 94798,2021-059S,48895,6869.508,94.438,497.252,485.495,0,
GENERATED VIA SPACETRACK.ORG API,18 SPCS,48895,SPACEBEE-108,PAYLOAD,U,21059S,2023/3/14 8:01,235168,15.24861466,0.00086,97.5819,208.5643,245.028,115.0064,0,999,9490,0.0016138,0.00040249,0,3860373,0 SPACEBEE-108,1 48895U 21059S   23073.33408837  .00040249  00000-0  16138-2 0  9992,2 48895  97.5819 208.5643 0008600 245.0280 115.0064 15.24861466 94900,2021-059S,48895,6869.338,94.435,497.111,485.296,0,
GENERATED VIA SPACETRACK.ORG API,18 SPCS,48895,SPACEBEE-108,PAYLOAD,U,21059S,2023/3/15 2:55,184224,15.24934164,0.0008587,97.5819,209.3617,242.5795,117.457,0,999,9502,0.0018774,0.0004698,0,3860758,0 SPACEBEE-108,1 48895U 21059S   23074.12152991  .00046980  00000-0  18774-2 0  9993,2 48895  97.5819 209.3617 0008587 242.5795 117.4570 15.24934164 95025,2021-059S,48895,6869.12,94.43,496.884,485.087,0,
GENERATED VIA SPACETRACK.ORG API,18 SPCS,48895,SPACEBEE-108,PAYLOAD,U,21059S,2023/3/15 7:38,379328,15.24954,0.0008572,97.5818,209.5609,241.9864,118.0507,0,999,9505,0.001866,0.0004672,0,3861350,0 SPACEBEE-108,1 48895U 21059S   23074.31838402  .00046720  00000-0  18660-2 0  9998,2 48895  97.5818 209.5609 0008572 241.9864 118.0507 15.24954000 95052,2021-059S,48895,6869.061,94.429,496.814,485.037,0,
GENERATED VIA SPACETRACK.ORG API,18 SPCS,48895,SPACEBEE-108,PAYLOAD,U,21059S,2023/3/15 21:48,684192,15.25010336,0.000853,97.5821,210.1592,239.8709,120.1684,0,999,9514,0.0017517,0.0004391,0,3861599,0 SPACEBEE-108,1 48895U 21059S   23074.90893153  .00043910  00000-0  17517-2 0  9995,2 48895  97.5821 210.1592 0008530 239.8709 120.1684 15.25010336 95149,2021-059S,48895,6868.891,94.426,496.616,484.897,0,
GENERATED VIA SPACETRACK.ORG API,18 SPCS,48895,SPACEBEE-108,PAYLOAD,U,21059S,2023/3/16 8:50,205920,15.25056379,0.0008472,97.582,210.6245,238.5596,121.4813,0,999,9521,0.0019089,0.00047949,0,3862093,0 SPACEBEE-108,1 48895U 21059S   23075.36823155  .00047949  00000-0  19089-2 0  9993,2 48895  97.5820 210.6245 0008472 238.5596 121.4813 15.25056379 95216,2021-059S,48895,6868.753,94.423,496.437,484.799,0,
GENERATED VIA SPACETRACK.ORG API,18 SPCS,48895,SPACEBEE-108,PAYLOAD,U,21059S,2023/3/16 8:50,205920,15.25056379,0.0008472,97.582,210.6245,238.5596,121.4813,0,999,9521,0.0019089,0.00047949,0,3862295,0 SPACEBEE-108,1 48895U 21059S   23075.36823155  .00047949  00000-0  19089-2 0  9993,2 48895  97.5820 210.6245 0008472 238.5596 121.4813 15.25056379 95216,2021-059S,48895,6868.753,94.423,496.437,484.799,0,
GENERATED VIA SPACETRACK.ORG API,18 SPCS,48895,SPACEBEE-108,PAYLOAD,U,21059S,2023/3/16 19:51,796256,15.25084813,0.0008477,97.5823,211.0899,236.8843,123.1581,0,999,9528,0.0013594,0.00034091,0,3862365,0 SPACEBEE-108,1 48895U 21059S   23075.82752079  .00034091  00000-0  13594-2 0  9999,2 48895  97.5823 211.0899 0008477 236.8843 123.1581 15.25084813 95282,2021-059S,48895,6868.668,94.421,496.355,484.71,0,
GENERATED VIA SPACETRACK.ORG API,18 SPCS,48895,SPACEBEE-108,PAYLOAD,U,21059S,2023/3/16 19:51,796256,15.25084813,0.0008477,97.5823,211.0899,236.8843,123.1581,0,999,9528,0.0013594,0.00034091,0,3862592,0 SPACEBEE-108,1 48895U 21059S   23075.82752079  .00034091  00000-0  13594-2 0  9999,2 48895  97.5823 211.0899 0008477 236.8843 123.1581 15.25084813 95282,2021-059S,48895,6868.668,94.421,496.355,484.71,0,
GENERATED VIA SPACETRACK.ORG API,18 SPCS,48895,SPACEBEE-108,PAYLOAD,U,21059S,2023/3/17 14:45,205024,15.25137882,0.0008551,97.5822,211.8877,234.3268,125.7174,0,999,9540,0.0013594,0.00034145,0,3863278,0 SPACEBEE-108,1 48895U 21059S   23076.61485191  .00034145  00000-0  13594-2 0  9995,2 48895  97.5822 211.8877 0008551 234.3268 125.7174 15.25137882 95407,2021-059S,48895,6868.508,94.418,496.247,484.5,0,
GENERATED VIA SPACETRACK.ORG API,18 SPCS,48895,SPACEBEE-108,PAYLOAD,U,21059S,2023/3/17 21:03,790336,15.25157419,0.0008583,97.5821,212.1536,233.6131,126.4315,0,999,9544,0.0013644,0.00034292,0,3863544,0 SPACEBEE-108,1 48895U 21059S   23076.87728924  .00034292  00000-0  13644-2 0  9996,2 48895  97.5821 212.1536 0008583 233.6131 126.4315 15.25157419 95445,2021-059S,48895,6868.45,94.416,496.21,484.42,0,
GENERATED VIA SPACETRACK.ORG API,18 SPCS,48895,SPACEBEE-108,PAYLOAD,U,21059S,2023/3/18 0:12,16896,15.25164116,0.0008569,97.5822,212.2866,233.0843,126.961,0,999,9546,0.0013067,0.00032839,0,3863609,0 SPACEBEE-108,1 48895U 21059S   23077.00850714  .00032839  00000-0  13067-2 0  9999,2 48895  97.5822 212.2866 0008569 233.0843 126.9610 15.25164116 95468,2021-059S,48895,6868.43,94.416,496.18,484.409,0,
GENERATED VIA SPACETRACK.ORG API,18 SPCS,48895,SPACEBEE-108,PAYLOAD,U,21059S,2023/3/18 22:14,689920,15.25224893,0.0008621,97.5824,213.2172,230.423,129.6247,0,999,9560,0.0012657,0.0003186,0,3864479,0 SPACEBEE-108,1 48895U 21059S   23077.92701030  .00031860  00000-0  12657-2 0  9993,2 48895  97.5824 213.2172 0008621 230.4230 129.6247 15.25224893 95602,2021-059S,48895,6868.247,94.412,496.033,484.191,0,
GENERATED VIA SPACETRACK.ORG API,18 SPCS,48895,SPACEBEE-108,PAYLOAD,U,21059S,2023/3/19 4:32,964544,15.25244022,0.0008624,97.5825,213.4831,229.6223,130.4262,0,999,9564,0.0013263,0.00033416,0,3864548,0 SPACEBEE-108,1 48895U 21059S   23078.18943246  .00033416  00000-0  13263-2 0  9992,2 48895  97.5825 213.4831 0008624 229.6223 130.4262 15.25244022 95649,2021-059S,48895,6868.19,94.411,495.978,484.132,0,
GENERATED VIA SPACETRACK.ORG API,18 SPCS,48895,SPACEBEE-108,PAYLOAD,U,21059S,2023/3/19 7:41,521504,15.25253477,0.0008587,97.5825,213.616,228.9992,131.0504,0,999,9566,0.00131,0.00033011,0,3865049,0 SPACEBEE-108,1 48895U 21059S   23078.32064261  .00033011  00000-0  13100-2 0  9990,2 48895  97.5825 213.6160 0008587 228.9992 131.0504 15.25253477 95661,2021-059S,48895,6868.161,94.411,495.924,484.129,0,
GENERATED VIA SPACETRACK.ORG API,18 SPCS,48895,SPACEBEE-108,PAYLOAD,U,21059S,2023/3/19 20:17,968288,15.25292042,0.0008561,97.5829,214.1479,227.0847,132.9673,0,999,9574,0.0013272,0.00033486,0,3865354,0 SPACEBEE-108,1 48895U 21059S   23078.84547417  .00033486  00000-0  13272-2 0  9992,2 48895  97.5829 214.1479 0008561 227.0847 132.9673 15.25292042 95742,2021-059S,48895,6868.046,94.408,495.79,484.031,0,
GENERATED VIA SPACETRACK.ORG API,18 SPCS,48895,SPACEBEE-108,PAYLOAD,U,21059S,2023/3/20 7:18,304128,15.25326833,0.0008495,97.583,214.6135,225.5895,134.4648,0,999,9581,0.0014226,0.00035947,0,3865711,0 SPACEBEE-108,1 48895U 21059S   23079.30469102  .00035947  00000-0  14226-2 0  9992,2 48895  97.5830 214.6135 0008495 225.5895 134.4648 15.25326833 95813,2021-059S,48895,6867.941,94.406,495.641,483.972,0,
GENERATED VIA SPACETRACK.ORG API,18 SPCS,48895,SPACEBEE-108,PAYLOAD,U,21059S,2023/3/20 7:18,304128,15.25326833,0.0008495,97.583,214.6135,225.5895,134.4648,0,999,9581,0.0014226,0.00035947,0,3865912,0 SPACEBEE-108,1 48895U 21059S   23079.30469102  .00035947  00000-0  14226-2 0  9992,2 48895  97.5830 214.6135 0008495 225.5895 134.4648 15.25326833 95813,2021-059S,48895,6867.941,94.406,495.641,483.972,0,
GENERATED VIA SPACETRACK.ORG API,18 SPCS,48895,SPACEBEE-108,PAYLOAD,U,21059S,2023/3/21 8:30,750176,15.25405555,0.0008451,97.5837,215.6771,222.5296,137.5288,0,999,9597,0.0014612,0.00037017,0,3866587,0 SPACEBEE-108,1 48895U 21059S   23080.35429109  .00037017  00000-0  14612-2 0  9991,2 48895  97.5837 215.6771 0008451 222.5296 137.5288 15.25405555 95971,2021-059S,48895,6867.705,94.401,495.374,483.766,0,
GENERATED VIA SPACETRACK.ORG API,18 SPCS,48895,SPACEBEE-108,PAYLOAD,U,21059S,2023/3/21 8:30,750176,15.25405555,0.0008451,97.5837,215.6771,222.5296,137.5288,0,999,9597,0.0014612,0.00037017,0,3866730,0 SPACEBEE-108,1 48895U 21059S   23080.35429109  .00037017  00000-0  14612-2 0  9991,2 48895  97.5837 215.6771 0008451 222.5296 137.5288 15.25405555 95971,2021-059S,48895,6867.705,94.401,495.374,483.766,0,
